KUIPER-00165            
1 65778U 25217S   26005.66668981 -.00004096  00000+0 -40031-3 0  9994
2 65778  51.8959 314.7105 0004948 143.0011  93.2421 14.89542150  5698
KUIPER-00166            
1 65779U 25217T   26005.66668981  .00068918  00000+0  22252-2 0  9990
2 65779  51.8740 308.3780 0004849 101.4961 108.1876 15.31475270  4186
KUIPER-00167            
1 65780U 25217U   26005.57342486  .00102241  00000+0  13518-1 0  9993
2 65780  51.8987 324.6830 0000421 173.9664 186.1303 14.79047671 15492
KUIPER-00168            
1 65781U 25217V   26005.66668981  .00062705  00000+0  35146-2 0  9997
2 65781  51.8867 309.5678 0001713 120.1540 270.5210 15.12796545  3035
KUIPER-00169            
1 65782U 25217W   26005.66668981 -.00528409  00000+0 -48656-1 0  9997
2 65782  51.8931 312.5996 0004238 106.1436 247.4010 14.96785926  5752
KUIPER-00170            
1 65783U 25217X   26005.66668981  .00030732  00000+0  36486-2 0  9992
2 65783  51.8998 316.9398 0007017  97.4971 273.6634 14.84191043  5722
KUIPER-00171            
1 65784U 25217Y   26005.66668981  .00133377  00000+0  86491-3 0  9994
2 65784  51.8529 294.2769 0011111 112.7087  68.7819 15.75012606  5065
KUIPER-00172            
1 65785U 25217Z   26005.22695457  .00030514  00000+0  13930-2 0  9991
2 65785  51.8772 312.5268 0005411 114.1765 245.9780 15.20333997 15638
KUIPER-00173            
1 65786U 25217AA  26005.66668981 -.01174933  00000+0 -10762+0 0  9996
2 65786  51.8906 312.6873 0001566 199.3594 333.0702 14.97405787  3835
KUIPER-00174            
1 65787U 25217AB  26005.66668981 -.00931659  00000+0 -57173-1 0  9991
2 65787  51.8813 309.7471 0001295 130.6093  87.8700 15.12506908  5777
KUIPER-00176            
1 65788U 25217AC  26005.61033773  .00006113  00000+0  82904-3 0  9990
2 65788  51.9009 322.0390 0001431  96.7307 263.3818 14.79990226 15534
KUIPER-00101            
1 65947U 25228A   26005.14968692 -.00004797  00000+0 -60072-3 0  9994
2 65947  51.8992 281.5635 0000608  52.9460 307.1558 14.79934110 13829
KUIPER-00113            
1 65948U 25228B   26005.66668981  .00028733  00000+0  35336-2 0  9998
2 65948  51.8972 274.3662 0000338 153.4237 197.1244 14.82776835  5368
KUIPER-00117            
1 65949U 25228C   26005.66668981  .00027032  00000+0  35597-2 0  9999
2 65949  51.8976 276.7976 0001036 110.0185 111.4131 14.79944496  4543
KUIPER-00121            
1 65950U 25228D   26005.66668981  .00027038  00000+0  32951-2 0  9998
2 65950  51.8986 271.6943 0002007 104.1671 314.9757 14.83185470  3296
KUIPER-00122            
1 65951U 25228E   26005.18068671 -.00000100  00000+0  15893-4 0  9996
2 65951  51.8997 283.9168 0001522  92.4802 267.6335 14.79935874 13798
KUIPER-00123            
1 65952U 25228F   26005.21450251  .00000139  00000+0  47295-4 0  9992
2 65952  51.8982 283.7897 0001152 120.6472 239.4603 14.79931020 13790
KUIPER-00124            
1 65953U 25228G   26005.66668981  .00034159  00000+0  44896-2 0  9994
2 65953  51.8982 274.2779 0000799 104.4849 102.5771 14.79909138  5870
KUIPER-00125            
1 65954U 25228H   26005.66668981 -.00654949  00000+0 -22426-1 0  9996
2 65954  51.8811 264.9750 0005108 128.3461 328.6506 15.32035694  4638
KUIPER-00126            
1 65955U 25228J   26005.18347024  .00004811  00000+0  65899-3 0  9994
2 65955  51.8994 281.4353 0000562  80.5829 279.5196 14.79973984 13823
KUIPER-00127            
1 65956U 25228K   26002.01301876  .00020489  00000+0  17325-2 0  9998
2 65956  51.8967 291.4974 0006386 134.7476 225.4015 14.98006974 13416
KUIPER-00128            
1 65957U 25228L   26005.66668981  .00023284  00000+0  27722-2 0  9994
2 65957  51.8994 271.9606 0002104 151.0869 320.8945 14.84231800  5533
KUIPER-00129            
1 65958U 25228M   26005.66668981 -.00863734  00000+0 -67420-1 0  9997
2 65958  51.9149 268.0098 0002003  60.9626   3.3956 15.03517715  5423
KUIPER-00130            
1 65959U 25228N   26005.66668981 -.01658889  00000+0 -17236+0 0  9990
2 65959  51.8942 269.7974 0005547 128.8563 138.2812 14.93062183  4302
KUIPER-00134            
1 65960U 25228P   26005.14484182  .00041334  00000+0  11476-2 0  9995
2 65960  51.8768 267.6688 0007144  97.9417 262.2380 15.36466078 14014
KUIPER-00135            
1 65961U 25228Q   26005.66668981  .00037582  00000+0  35779-2 0  9996
2 65961  51.8965 269.9928 0004530 125.0921 284.2276 14.93044576  3535
KUIPER-00136            
1 65962U 25228R   26005.66668981 -.01048557  00000+0 -87662-1 0  9991
2 65962  51.8920 268.0555 0004964 121.8643 173.7956 15.01007507  3719
KUIPER-00137            
1 65963U 25228S   26005.66668981 -.00275703  00000+0 -17106-1 0  9992
2 65963  51.8960 266.6661 0005012 132.6405 229.4675 15.10606067  4249
KUIPER-00138            
1 65964U 25228T   26005.66668981 -.01594017  00000+0 -78009-1 0  9995
2 65964  51.8865 265.7895 0007422 119.4327 304.5053 15.20962662  5687
KUIPER-00140            
1 65965U 25228U   26005.66668981 -.00109882  00000+0 -67515-2 0  9998
2 65965  51.8918 266.9647 0006377 110.2276  33.2256 15.10064214  4668
KUIPER-00141            
1 65966U 25228V   26005.66668981 -.00308032  00000+0 -12455-1 0  9999
2 65966  51.8813 265.0878 0003463 142.8310 230.2352 15.25575791  5224
KUIPER-00146            
1 65967U 25228W   26005.66668981 -.01856644  00000+0 -94417-1 0  9996
2 65967  51.8867 265.7348 0005189 127.6905 280.1111 15.19649995  5713
KUIPER-00149            
1 65968U 25228X   26005.44824420 -.00049778  00000+0 -13984-2 0  9997
2 65968  51.8781 265.9640 0005861 105.5705 254.5929 15.35946342 14060
KUIPER-00154            
1 65969U 25228Y   26005.12801062  .00058867  00000+0  16152-2 0  9997
2 65969  51.8791 267.5661 0006656  87.5426 272.6323 15.36680598 14018
KUIPER-00157            
1 65970U 25228Z   26005.66668981 -.00765824  00000+0 -24403-1 0  9996
2 65970  51.8784 265.1170 0005969 127.6168 257.8332 15.34682093  5741
KUIPER-00144            
1 67133U 25301A   26005.58336806  .00024982  00000+0  71232-3 0  9995
2 67133  51.8711  10.1421 0006128 148.7076 169.1896 15.35899030  3437
KUIPER-00164            
1 67134U 25301B   26005.51690701  .00042977  00000+0  11913-2 0  9999
2 67134  51.8727  10.3609 0003174 125.4357 234.6926 15.36516489  4200
KUIPER-00175            
1 67135U 25301C   26005.51044645  .00036952  00000+0  10093-2 0  9994
2 67135  51.8738  10.3150 0002903  84.8413 275.2905 15.37048614  4090
KUIPER-00179            
1 67136U 25301D   26005.51502686  .00035908  00000+0  99472-3 0  9998
2 67136  51.8740  10.3468 0003395 110.5839 249.5511 15.36620361  4205
KUIPER-00181            
1 67137U 25301E   26005.53976906  .00037807  00000+0  11053-2 0  9999
2 67137  51.8654  10.5011 0010528 176.3378 183.7687 15.34864069  4183
KUIPER-00183            
1 67138U 25301F   26005.54381197  .00037677  00000+0  11113-2 0  9995
2 67138  51.8627  10.5235 0011524 178.2994 181.8032 15.34575871  4198
KUIPER-00184            
1 67139U 25301G   26005.47374457  .00026405  00000+0  77769-3 0  9996
2 67139  51.8640  10.8082 0009490 175.4565 184.6508 15.34824463  4293
KUIPER-00186            
1 67140U 25301H   26005.53101401  .00040511  00000+0  11565-2 0  9997
2 67140  51.8697  10.4495 0007832 160.8873 199.2408 15.35601683  4029
KUIPER-00187            
1 67141U 25301J   26005.52089401  .00034289  00000+0  96261-3 0  9994
2 67141  51.8719  10.3863 0004995 146.6484 213.4817 15.36222199  4025
KUIPER-00188            
1 67142U 25301K   26005.53225938  .00029310  00000+0  84442-3 0  9990
2 67142  51.8708  10.4591 0007549 166.9349 193.1834 15.35476952  4026
KUIPER-00191            
1 67143U 25301L   26005.52962639  .00034677  00000+0  99189-3 0  9992
2 67143  51.8687  10.4401 0006478 159.8125 200.3119 15.35623411  4050
KUIPER-00196            
1 67144U 25301M   26005.51846992  .00036971  00000+0  10308-2 0  9999
2 67144  51.8732  10.3706 0003979 119.8569 240.2813 15.36404892  4022
KUIPER-00204            
1 67145U 25301N   26005.58336806 -.01158346  00000+0 -38487-1 0  9996
2 67145  51.8765   9.9991 0003991  94.9164 283.4010 15.33648202  4140
KUIPER-00210            
1 67146U 25301P   26005.54251654  .00020713  00000+0  61569-3 0  9992
2 67146  51.8613  10.5138 0010340 182.4149 177.6788 15.34674885  4194
KUIPER-00221            
1 67147U 25301Q   26005.52227263  .00035380  00000+0  99460-3 0  9997
2 67147  51.8726  10.3950 0005105 142.5055 217.6288 15.36164019  4023
KUIPER-00232            
1 67148U 25301R   26005.57446906  .00043773  00000+0  11933-2 0  9993
2 67148  51.8737   9.9958 0002418  75.4860 284.6395 15.37028036  4033
KUIPER-00241            
1 67149U 25301S   26005.51546418  .00053601  00000+0  14758-2 0  9996
2 67149  51.8743  10.3481 0002927 119.0905 241.0375 15.36629773  4352
KUIPER-00245            
1 67150U 25301T   26005.58336806 -.00254384  00000+0 -78975-2 0  9997
2 67150  51.8741  10.1260 0006580 155.1298 165.8498 15.33844858  3516
KUIPER-00246            
1 67151U 25301U   26005.51927072  .00032005  00000+0  89526-3 0  9999
2 67151  51.8741  10.3745 0004057 140.5908 219.5375 15.36372077  4042
KUIPER-00247            
1 67152U 25301V   26005.54510028  .00028470  00000+0  85070-3 0  9993
2 67152  51.8642  10.5349 0011234 184.9015 175.1862 15.34310682  4029
KUIPER-00248            
1 67153U 25301W   26005.47067647  .00035695  00000+0  10313-2 0  9994
2 67153  51.8691  10.7932 0009034 171.5948 188.5191 15.35278323  4182
KUIPER-00249            
1 67154U 25301X   26005.46845560  .00027742  00000+0  80160-3 0  9994
2 67154  51.8666  10.7774 0008338 168.5249 191.5929 15.35408655  4013
KUIPER-00250            
1 67155U 25301Y   26005.52678349  .00047355  00000+0  13340-2 0  9998
2 67155  51.8726  10.4239 0006660 157.1308 202.9976 15.35955405  4053
KUIPER-00251            
1 67156U 25301Z   26005.53497184  .00029717  00000+0  86717-3 0  9997
2 67156  51.8678  10.4738 0009012 166.4594 193.6635 15.35056282  4219
